ONEWEB-0546             
1 56048U 23043C   25361.27046480  .00000117  00000+0  27313-3 0  9990
2 56048  87.9056 262.9996 0001322  99.1656 260.9625 13.16593148136345
ONEWEB-0547             
1 56049U 23043D   25361.26666875  .00000030  00000+0  40302-4 0  9994
2 56049  87.9231 278.2647 0001678  70.6021 289.5294 13.21827471135510
ONEWEB-0548             
1 56050U 23043E   25361.21900950  .00000005  00000+0 -20449-4 0  9999
2 56050  87.9040 263.0143 0002096  78.8297 281.3070 13.16595325136330
ONEWEB-0549             
1 56051U 23043F   25361.18356168  .00000183  00000+0  41167-3 0  9997
2 56051  87.9226 278.2949 0001619  66.6552 293.4752 13.21827161135509
ONEWEB-0550             
1 56052U 23043G   25361.24609360  .00000115  00000+0  24621-3 0  9991
2 56052  87.9225 278.2776 0001790  78.5483 281.5852 13.21824597135512
ONEWEB-0551             
1 56053U 23043H   25361.26567254  .00000260  00000+0  65641-3 0  9997
2 56053  87.9004 293.5411 0001762  68.7457 291.3862 13.15547140133792
ONEWEB-0552             
1 56054U 23043J   25361.24114665  .00000025  00000+0  28324-4 0  9997
2 56054  87.9226 278.2871 0001861  67.7027 292.4304 13.21827646135515
ONEWEB-0553             
1 56055U 23043K   25361.27679603  .00000070  00000+0  15027-3 0  9994
2 56055  87.9045 263.0043 0001589  87.1437 272.9876 13.16592466136359
ONEWEB-0554             
1 56056U 23043L   25361.26414186  .00000172  00000+0  41522-3 0  9999
2 56056  87.9037 263.0194 0001856  77.6650 282.4689 13.16593695136337
ONEWEB-0555             
1 56057U 23043M   25361.15014235 -.00000007  00000+0 -51143-4 0  9999
2 56057  87.9046 263.0244 0001461  94.4163 265.7135 13.16593069136326
ONEWEB-0557             
1 56058U 23043N   25361.24039162  .00000058  00000+0  11683-3 0  9994
2 56058  87.9042 263.0190 0002569  99.9398 260.2023 13.16592556136330
ONEWEB-0558             
1 56059U 23043P   25361.31027761  .00000067  00000+0  13089-3 0  9997
2 56059  87.9223 278.2667 0001457  58.2773 301.8503 13.21825235135534
ONEWEB-0559             
1 56060U 23043Q   25361.29874762  .00000021  00000+0  19301-4 0  9991
2 56060  87.9222 278.2624 0001778  65.8489 294.2831 13.21825790135548
ONEWEB-0566             
1 56061U 23043R   25361.21647156  .00000097  00000+0  20262-3 0  9999
2 56061  87.9225 278.2774 0001676  62.5330 297.5974 13.21826353135511
ONEWEB-0568             
1 56062U 23043S   25361.18180254  .00000144  00000+0  34291-3 0  9997
2 56062  87.9047 263.0187 0001484  84.6714 275.4586 13.16592638136348
ONEWEB-0574             
1 56063U 23043T   25361.28558790  .00000073  00000+0  14427-3 0  9993
2 56063  87.9224 278.2510 0001868  77.8476 282.2867 13.21826877135561
ONEWEB-0575             
1 56064U 23043U   25361.25146583  .00000166  00000+0  40103-3 0  9997
2 56064  87.9042 263.0045 0001889  85.5031 274.6316 13.16592338136348
