[{"OBJECT_NAME":"ONEWEB-0546","OBJECT_ID":"2023-043C","EPOCH":"2025-12-27T06:29:28.158720","MEAN_MOTION":13.16593148,"ECCENTRICITY":0.00013225,"INCLINATION":87.9056,"RA_OF_ASC_NODE":262.9996,"ARG_OF_PERICENTER":99.1656,"MEAN_ANOMALY":260.9625,"EPHEMERIS_TYPE":0,"CLASSIFICATION_TYPE":"U","NORAD_CAT_ID":56048,"ELEMENT_SET_NO":999,"REV_AT_EPOCH":13634,"BSTAR":0.00027312805,"MEAN_MOTION_DOT":1.17e-6,"MEAN_MOTION_DDOT":0},{"OBJECT_NAME":"ONEWEB-0547","OBJECT_ID":"2023-043D","EPOCH":"2025-12-27T06:24:00.180000","MEAN_MOTION":13.21827471,"ECCENTRICITY":0.00016788,"INCLINATION":87.9231,"RA_OF_ASC_NODE":278.2647,"ARG_OF_PERICENTER":70.6021,"MEAN_ANOMALY":289.5294,"EPHEMERIS_TYPE":0,"CLASSIFICATION_TYPE":"U","NORAD_CAT_ID":56049,"ELEMENT_SET_NO":999,"REV_AT_EPOCH":13551,"BSTAR":4.0301804e-5,"MEAN_MOTION_DOT":3.0e-7,"MEAN_MOTION_DDOT":0},{"OBJECT_NAME":"ONEWEB-0548","OBJECT_ID":"2023-043E","EPOCH":"2025-12-27T05:15:22.420800","MEAN_MOTION":13.16595325,"ECCENTRICITY":0.00020968,"INCLINATION":87.904,"RA_OF_ASC_NODE":263.0143,"ARG_OF_PERICENTER":78.8297,"MEAN_ANOMALY":281.307,"EPHEMERIS_TYPE":0,"CLASSIFICATION_TYPE":"U","NORAD_CAT_ID":56050,"ELEMENT_SET_NO":999,"REV_AT_EPOCH":13633,"BSTAR":-2.0448543e-5,"MEAN_MOTION_DOT":5.0e-8,"MEAN_MOTION_DDOT":0},{"OBJECT_NAME":"ONEWEB-0549","OBJECT_ID":"2023-043F","EPOCH":"2025-12-27T04:24:19.729152","MEAN_MOTION":13.21827161,"ECCENTRICITY":0.00016199,"INCLINATION":87.9226,"RA_OF_ASC_NODE":278.2949,"ARG_OF_PERICENTER":66.6552,"MEAN_ANOMALY":293.4752,"EPHEMERIS_TYPE":0,"CLASSIFICATION_TYPE":"U","NORAD_CAT_ID":56051,"ELEMENT_SET_NO":999,"REV_AT_EPOCH":13550,"BSTAR":0.00041167103,"MEAN_MOTION_DOT":1.83e-6,"MEAN_MOTION_DDOT":0},{"OBJECT_NAME":"ONEWEB-0550","OBJECT_ID":"2023-043G","EPOCH":"2025-12-27T05:54:22.487040","MEAN_MOTION":13.21824597,"ECCENTRICITY":0.00017901,"INCLINATION":87.9225,"RA_OF_ASC_NODE":278.2776,"ARG_OF_PERICENTER":78.5483,"MEAN_ANOMALY":281.5852,"EPHEMERIS_TYPE":0,"CLASSIFICATION_TYPE":"U","NORAD_CAT_ID":56052,"ELEMENT_SET_NO":999,"REV_AT_EPOCH":13551,"BSTAR":0.00024620779,"MEAN_MOTION_DOT":1.15e-6,"MEAN_MOTION_DDOT":0},{"OBJECT_NAME":"ONEWEB-0551","OBJECT_ID":"2023-043H","EPOCH":"2025-12-27T06:22:34.107456","MEAN_MOTION":13.1554714,"ECCENTRICITY":0.00017629,"INCLINATION":87.9004,"RA_OF_ASC_NODE":293.5411,"ARG_OF_PERICENTER":68.7457,"MEAN_ANOMALY":291.3862,"EPHEMERIS_TYPE":0,"CLASSIFICATION_TYPE":"U","NORAD_CAT_ID":56053,"ELEMENT_SET_NO":999,"REV_AT_EPOCH":13379,"BSTAR":0.00065641449,"MEAN_MOTION_DOT":2.6e-6,"MEAN_MOTION_DDOT":0},{"OBJECT_NAME":"ONEWEB-0552","OBJECT_ID":"2023-043J","EPOCH":"2025-12-27T05:47:15.070560","MEAN_MOTION":13.21827646,"ECCENTRICITY":0.0001861,"INCLINATION":87.9226,"RA_OF_ASC_NODE":278.2871,"ARG_OF_PERICENTER":67.7027,"MEAN_ANOMALY":292.4304,"EPHEMERIS_TYPE":0,"CLASSIFICATION_TYPE":"U","NORAD_CAT_ID":56054,"ELEMENT_SET_NO":999,"REV_AT_EPOCH":13551,"BSTAR":2.832389e-5,"MEAN_MOTION_DOT":2.5e-7,"MEAN_MOTION_DDOT":0},{"OBJECT_NAME":"ONEWEB-0553","OBJECT_ID":"2023-043K","EPOCH":"2025-12-27T06:38:35.176992","MEAN_MOTION":13.16592466,"ECCENTRICITY":0.00015891,"INCLINATION":87.9045,"RA_OF_ASC_NODE":263.0043,"ARG_OF_PERICENTER":87.1437,"MEAN_ANOMALY":272.9876,"EPHEMERIS_TYPE":0,"CLASSIFICATION_TYPE":"U","NORAD_CAT_ID":56055,"ELEMENT_SET_NO":999,"REV_AT_EPOCH":13635,"BSTAR":0.00015027438,"MEAN_MOTION_DOT":7.0e-7,"MEAN_MOTION_DDOT":0},{"OBJECT_NAME":"ONEWEB-0554","OBJECT_ID":"2023-043L","EPOCH":"2025-12-27T06:20:21.856704","MEAN_MOTION":13.16593695,"ECCENTRICITY":0.00018564,"INCLINATION":87.9037,"RA_OF_ASC_NODE":263.0194,"ARG_OF_PERICENTER":77.665,"MEAN_ANOMALY":282.4689,"EPHEMERIS_TYPE":0,"CLASSIFICATION_TYPE":"U","NORAD_CAT_ID":56056,"ELEMENT_SET_NO":999,"REV_AT_EPOCH":13633,"BSTAR":0.00041521928,"MEAN_MOTION_DOT":1.72e-6,"MEAN_MOTION_DDOT":0},{"OBJECT_NAME":"ONEWEB-0555","OBJECT_ID":"2023-043M","EPOCH":"2025-12-27T03:36:12.299040","MEAN_MOTION":13.16593069,"ECCENTRICITY":0.00014612,"INCLINATION":87.9046,"RA_OF_ASC_NODE":263.0244,"ARG_OF_PERICENTER":94.4163,"MEAN_ANOMALY":265.7135,"EPHEMERIS_TYPE":0,"CLASSIFICATION_TYPE":"U","NORAD_CAT_ID":56057,"ELEMENT_SET_NO":999,"REV_AT_EPOCH":13632,"BSTAR":-5.1143352e-5,"MEAN_MOTION_DOT":-7.0e-8,"MEAN_MOTION_DDOT":0},{"OBJECT_NAME":"ONEWEB-0557","OBJECT_ID":"2023-043N","EPOCH":"2025-12-27T05:46:09.835968","MEAN_MOTION":13.16592556,"ECCENTRICITY":0.00025696,"INCLINATION":87.9042,"RA_OF_ASC_NODE":263.019,"ARG_OF_PERICENTER":99.9398,"MEAN_ANOMALY":260.2023,"EPHEMERIS_TYPE":0,"CLASSIFICATION_TYPE":"U","NORAD_CAT_ID":56058,"ELEMENT_SET_NO":999,"REV_AT_EPOCH":13633,"BSTAR":0.00011682862,"MEAN_MOTION_DOT":5.8e-7,"MEAN_MOTION_DDOT":0},{"OBJECT_NAME":"ONEWEB-0558","OBJECT_ID":"2023-043P","EPOCH":"2025-12-27T07:26:47.985504","MEAN_MOTION":13.21825235,"ECCENTRICITY":0.00014574,"INCLINATION":87.9223,"RA_OF_ASC_NODE":278.2667,"ARG_OF_PERICENTER":58.2773,"MEAN_ANOMALY":301.8503,"EPHEMERIS_TYPE":0,"CLASSIFICATION_TYPE":"U","NORAD_CAT_ID":56059,"ELEMENT_SET_NO":999,"REV_AT_EPOCH":13553,"BSTAR":0.00013089016,"MEAN_MOTION_DOT":6.7e-7,"MEAN_MOTION_DDOT":0},{"OBJECT_NAME":"ONEWEB-0559","OBJECT_ID":"2023-043Q","EPOCH":"2025-12-27T07:10:11.794368","MEAN_MOTION":13.2182579,"ECCENTRICITY":0.00017787,"INCLINATION":87.9222,"RA_OF_ASC_NODE":278.2624,"ARG_OF_PERICENTER":65.8489,"MEAN_ANOMALY":294.2831,"EPHEMERIS_TYPE":0,"CLASSIFICATION_TYPE":"U","NORAD_CAT_ID":56060,"ELEMENT_SET_NO":999,"REV_AT_EPOCH":13554,"BSTAR":1.9301007e-5,"MEAN_MOTION_DOT":2.1e-7,"MEAN_MOTION_DDOT":0},{"OBJECT_NAME":"ONEWEB-0566","OBJECT_ID":"2023-043R","EPOCH":"2025-12-27T05:11:43.142784","MEAN_MOTION":13.21826353,"ECCENTRICITY":0.00016763,"INCLINATION":87.9225,"RA_OF_ASC_NODE":278.2774,"ARG_OF_PERICENTER":62.533,"MEAN_ANOMALY":297.5974,"EPHEMERIS_TYPE":0,"CLASSIFICATION_TYPE":"U","NORAD_CAT_ID":56061,"ELEMENT_SET_NO":999,"REV_AT_EPOCH":13551,"BSTAR":0.00020262478,"MEAN_MOTION_DOT":9.7e-7,"MEAN_MOTION_DDOT":0},{"OBJECT_NAME":"ONEWEB-0568","OBJECT_ID":"2023-043S","EPOCH":"2025-12-27T04:21:47.739456","MEAN_MOTION":13.16592638,"ECCENTRICITY":0.00014842,"INCLINATION":87.9047,"RA_OF_ASC_NODE":263.0187,"ARG_OF_PERICENTER":84.6714,"MEAN_ANOMALY":275.4586,"EPHEMERIS_TYPE":0,"CLASSIFICATION_TYPE":"U","NORAD_CAT_ID":56062,"ELEMENT_SET_NO":999,"REV_AT_EPOCH":13634,"BSTAR":0.0003429127,"MEAN_MOTION_DOT":1.44e-6,"MEAN_MOTION_DDOT":0},{"OBJECT_NAME":"ONEWEB-0574","OBJECT_ID":"2023-043T","EPOCH":"2025-12-27T06:51:14.794560","MEAN_MOTION":13.21826877,"ECCENTRICITY":0.00018683,"INCLINATION":87.9224,"RA_OF_ASC_NODE":278.251,"ARG_OF_PERICENTER":77.8476,"MEAN_ANOMALY":282.2867,"EPHEMERIS_TYPE":0,"CLASSIFICATION_TYPE":"U","NORAD_CAT_ID":56063,"ELEMENT_SET_NO":999,"REV_AT_EPOCH":13556,"BSTAR":0.0001442734,"MEAN_MOTION_DOT":7.3e-7,"MEAN_MOTION_DDOT":0},{"OBJECT_NAME":"ONEWEB-0575","OBJECT_ID":"2023-043U","EPOCH":"2025-12-27T06:02:06.647712","MEAN_MOTION":13.16592338,"ECCENTRICITY":0.00018896,"INCLINATION":87.9042,"RA_OF_ASC_NODE":263.0045,"ARG_OF_PERICENTER":85.5031,"MEAN_ANOMALY":274.6316,"EPHEMERIS_TYPE":0,"CLASSIFICATION_TYPE":"U","NORAD_CAT_ID":56064,"ELEMENT_SET_NO":999,"REV_AT_EPOCH":13634,"BSTAR":0.00040103243,"MEAN_MOTION_DOT":1.66e-6,"MEAN_MOTION_DDOT":0}]
